{
  "links" : {
    "next" : "https://api.nasa.gov/neo/rest/v1/feed?start_date=2016-04-23&end_date=2016-04-23&detailed=true&api_key=t0TVs3DtDT2H8Oy2Zy8m2eVrNsAVKAexjcZXUckd",
    "prev" : "https://api.nasa.gov/neo/rest/v1/feed?start_date=2016-04-21&end_date=2016-04-21&detailed=true&api_key=t0TVs3DtDT2H8Oy2Zy8m2eVrNsAVKAexjcZXUckd",
    "self" : "https://api.nasa.gov/neo/rest/v1/feed?start_date=2016-04-22&end_date=2016-04-22&detailed=true&api_key=t0TVs3DtDT2H8Oy2Zy8m2eVrNsAVKAexjcZXUckd"
  },
  "element_count" : 9,
  "near_earth_objects" : {
    "2016-04-22" : [ {
      "links" : {
        "self" : "https://api.nasa.gov/neo/rest/v1/neo/3623950?api_key=t0TVs3DtDT2H8Oy2Zy8m2eVrNsAVKAexjcZXUckd"
      },
      "neo_reference_id" : "3623950",
      "name" : "(2013 AQ60)",
      "nasa_jpl_url" : "http://ssd.jpl.nasa.gov/sbdb.cgi?sstr=3623950",
      "absolute_magnitude_h" : 20.0,
      "estimated_diameter" : {
        "kilometers" : {
          "estimated_diameter_min" : 0.2658,
          "estimated_diameter_max" : 0.5943468684
        },
        "meters" : {
          "estimated_diameter_min" : 265.8,
          "estimated_diameter_max" : 594.3468684194
        },
        "miles" : {
          "estimated_diameter_min" : 0.1651604118,
          "estimated_diameter_max" : 0.369309908
        },
        "feet" : {
          "estimated_diameter_min" : 872.047272,
          "estimated_diameter_max" : 1949.9569797852
        }
      },
      "is_potentially_hazardous_asteroid" : false,
      "close_approach_data" : [ {
        "close_approach_date" : "2016-04-22",
        "epoch_date_close_approach" : 1461308400000,
        "relative_velocity" : {
          "kilometers_per_second" : "20.5135288982",
          "kilometers_per_hour" : "73848.7040336701",
          "miles_per_hour" : "45886.7127924769"
        },
        "miss_distance" : {
          "astronomical" : "0.3978514778",
          "lunar" : "154.7642211914",
          "kilometers" : "59517732",
          "miles" : "36982604"
        },
        "orbiting_body" : "Earth"
      } ],
      "orbital_data" : {
        "orbit_id" : "13",
        "orbit_determination_date" : "2017-04-06 08:47:18",
        "orbit_uncertainty" : "1",
        "minimum_orbit_intersection" : ".0666583",
        "jupiter_tisserand_invariant" : "3.359",
        "epoch_osculation" : "2458000.5",
        "eccentricity" : ".7128864519182797",
        "semi_major_axis" : "2.107936765848476",
        "inclination" : "4.108115643462753",
        "ascending_node_longitude" : "25.52311898076086",
        "orbital_period" : "1117.8532529368",
        "perihelion_distance" : ".6052172039746623",
        "perihelion_argument" : "194.4596161453646",
        "aphelion_distance" : "3.610656327722289",
        "perihelion_time" : "2457504.722666328271",
        "mean_anomaly" : "159.6630323818658",
        "mean_motion" : ".3220458490899549",
        "equinox" : "J2000"
      }
    }, {
      "links" : {
        "self" : "https://api.nasa.gov/neo/rest/v1/neo/3736248?api_key=t0TVs3DtDT2H8Oy2Zy8m2eVrNsAVKAexjcZXUckd"
      },
      "neo_reference_id" : "3736248",
      "name" : "(2015 XD130)",
      "nasa_jpl_url" : "http://ssd.jpl.nasa.gov/sbdb.cgi?sstr=3736248",
      "absolute_magnitude_h" : 19.5,
      "estimated_diameter" : {
        "kilometers" : {
          "estimated_diameter_min" : 0.3346223745,
          "estimated_diameter_max" : 0.7482383761
        },
        "meters" : {
          "estimated_diameter_min" : 334.6223744549,
          "estimated_diameter_max" : 748.2383760735
        },
        "miles" : {
          "estimated_diameter_min" : 0.2079246394,
          "estimated_diameter_max" : 0.464933628
        },
        "feet" : {
          "estimated_diameter_min" : 1097.8424710066,
          "estimated_diameter_max" : 2454.8503937571
        }
      },
      "is_potentially_hazardous_asteroid" : true,
      "close_approach_data" : [ {
        "close_approach_date" : "2016-04-22",
        "epoch_date_close_approach" : 1461308400000,
        "relative_velocity" : {
          "kilometers_per_second" : "18.4927383884",
          "kilometers_per_hour" : "66573.8581982396",
          "miles_per_hour" : "41366.4065010117"
        },
        "miss_distance" : {
          "astronomical" : "0.4832558263",
          "lunar" : "187.9865264893",
          "kilometers" : "72294048",
          "miles" : "44921436"
        },
        "orbiting_body" : "Earth"
      } ],
      "orbital_data" : {
        "orbit_id" : "53",
        "orbit_determination_date" : "2017-04-06 08:30:04",
        "orbit_uncertainty" : "3",
        "minimum_orbit_intersection" : ".0490569",
        "jupiter_tisserand_invariant" : "4.303",
        "epoch_osculation" : "2458000.5",
        "eccentricity" : ".4636090556586665",
        "semi_major_axis" : "1.482449029032005",
        "inclination" : "32.97579085451118",
        "ascending_node_longitude" : "253.6023943511462",
        "orbital_period" : "659.2772382057939",
        "perihelion_distance" : ".7951722346203699",
        "perihelion_argument" : "297.8454247534901",
        "aphelion_distance" : "2.16972582344364",
        "perihelion_time" : "2458130.874430347845",
        "mean_anomaly" : "288.8087132312408",
        "mean_motion" : ".5460525240940075",
        "equinox" : "J2000"
      }
    }, {
      "links" : {
        "self" : "https://api.nasa.gov/neo/rest/v1/neo/3752079?api_key=t0TVs3DtDT2H8Oy2Zy8m2eVrNsAVKAexjcZXUckd"
      },
      "neo_reference_id" : "3752079",
      "name" : "(2016 HA)",
      "nasa_jpl_url" : "http://ssd.jpl.nasa.gov/sbdb.cgi?sstr=3752079",
      "absolute_magnitude_h" : 26.181,
      "estimated_diameter" : {
        "kilometers" : {
          "estimated_diameter_min" : 0.015429611,
          "estimated_diameter_max" : 0.034501659
        },
        "meters" : {
          "estimated_diameter_min" : 15.4296109829,
          "estimated_diameter_max" : 34.5016590241
        },
        "miles" : {
          "estimated_diameter_min" : 0.0095875128,
          "estimated_diameter_max" : 0.0214383304
        },
        "feet" : {
          "estimated_diameter_min" : 50.6220848971,
          "estimated_diameter_max" : 113.1944229927
        }
      },
      "is_potentially_hazardous_asteroid" : false,
      "close_approach_data" : [ {
        "close_approach_date" : "2016-04-22",
        "epoch_date_close_approach" : 1461308400000,
        "relative_velocity" : {
          "kilometers_per_second" : "12.3519038695",
          "kilometers_per_hour" : "44466.8539301309",
          "miles_per_hour" : "27629.9737656416"
        },
        "miss_distance" : {
          "astronomical" : "0.0166724958",
          "lunar" : "6.4856009483",
          "kilometers" : "2494170",
          "miles" : "1549805.375"
        },
        "orbiting_body" : "Earth"
      } ],
      "orbital_data" : {
        "orbit_id" : "9",
        "orbit_determination_date" : "2017-07-04 06:19:26",
        "orbit_uncertainty" : "7",
        "minimum_orbit_intersection" : ".0101154",
        "jupiter_tisserand_invariant" : "4.762",
        "epoch_osculation" : "2458000.5",
        "eccentricity" : ".4284101756469463",
        "semi_major_axis" : "1.355180906004765",
        "inclination" : "1.107831083122953",
        "ascending_node_longitude" : "153.224877788129",
        "orbital_period" : "576.2279737313081",
        "perihelion_distance" : ".774607616029876",
        "perihelion_argument" : "135.5843847472982",
        "aphelion_distance" : "1.935754195979654",
        "perihelion_time" : "2458130.474060332369",
        "mean_anomaly" : "278.7983509084703",
        "mean_motion" : ".6247527305362408",
        "equinox" : "J2000"
      }
    } ]
  }
}